ANGOSAT 2               
1 54033U 22131A   26194.63688692  .00000131  00000+0  00000+0 0  9997
2 54033   0.0181 115.7661 0000169 147.0294 280.9877  1.00271033 13740
EUTELSAT HOTBIRD 13F    
1 54048U 22134A   26194.13588723  .00000085  00000+0  00000+0 0  9993
2 54048   0.0558 285.3238 0001821  69.6444 357.9840  1.00272365 13632
LDPE-2                  
1 54219U 22144A   26194.47614209  .00000030  00000+0  00000+0 0  9990
2 54219   5.6742  63.4303 0002377 110.6544 156.4424  1.00543175 12102
EUTELSAT HOTBIRD 13G    
1 54225U 22146A   26194.56337403  .00000000  00000+0  00000+0 0  9994
2 54225   0.0141 238.8292 0002132 306.3453 322.0971  1.00271425  7735
ZHONGXING-19            
1 54230U 22148A   26194.60600523 -.00000086  00000+0  00000+0 0  9998
2 54230   0.0144 344.1043 0002940 155.3273 173.3911  1.00270531 13643
GALAXY 31 (G-31)        
1 54243U 22153A   26194.60837346  .00000009  00000+0  00000+0 0  9997
2 54243   0.0171  66.0837 0000944  53.9617 269.4339  1.00270713  7393
GALAXY 32 (G-32)        
1 54244U 22153B   26194.50947838 -.00000178  00000+0  00000+0 0  9993
2 54244   0.0121  29.6563 0001400  18.1075 336.0269  1.00269974 13408
EUTELSAT 10B            
1 54259U 22157A   26194.34909053  .00000064  00000+0  00000+0 0  9995
2 54259   0.0609  95.3158 0001608  17.0416 314.5294  1.00267609 13280
GALAXY 35 (G-35)        
1 54741U 22170A   26194.54240059  .00000000  00000+0  00000+0 0  9992
2 54741   0.0255  65.2301 0001902  51.8228 276.5266  1.00268649 13150
GALAXY 36 (G-36)        
1 54742U 22170B   26194.61470016 -.00000189  00000+0  00000+0 0  9998
2 54742   0.0040 258.9339 0002352 201.0850 323.7604  1.00270311 13032
METEOSAT-12 (MTG-I1)    
1 54743U 22170C   26194.34709719 -.00000012  00000+0  00000+0 0  9999
2 54743   0.7231  19.3869 0003761  82.4326 314.0654  1.00267253 13245
SHIJIAN-23 (SJ-23)      
1 55131U 23002A   26194.77423154 -.00000357  00000+0  00000+0 0  9991
2 55131   3.7833  77.9768 0003432 270.3095 352.1879  1.00077393 12775
APSTAR-6E               
1 55239U 23005A   26194.65883110 -.00000323  00000+0  00000+0 0  9995
2 55239   0.0663 239.1348 0001860 339.1862  84.4066  1.00265066 18955
USA 342                 
1 55263U 23008A   26190.28864118  .00000000  00000+0  00000+0 0  9998
2 55263   0.0052 352.2306 0000262   7.3445  55.4773  1.00269378 12734
LDPE-3A                 
1 55264U 23008B   26194.58956671 -.00000302  00000+0  00000+0 0  9998
2 55264   2.4143  81.3372 0001504  79.4228 127.2161  0.99150595 12077
ELEKTRO-L 4             
1 55506U 23016A   26193.73215672 -.00000058  00000+0  00000+0 0  9999
2 55506   0.1095 127.7772 0001261  49.1881 183.0251  1.00272446 12595
AMAZONAS NEXUS          
1 55508U 23017A   26194.54890062 -.00000286  00000+0  00000+0 0  9997
2 55508   0.0354  42.5949 0004357  42.8529 342.5754  1.00269010  7308
ZHONGXING-26            
1 55686U 23023A   26193.51648942 -.00000352  00000+0  00000+0 0  9999
2 55686   0.0650  71.3409 0003169  16.2999 153.8117  1.00290824 12489
LUCH-5X (OLYMP-K 2)     
1 55841U 23031A   26194.71585002  .00000029  00000+0  00000+0 0  9991
2 55841   0.0297  94.8289 0000896 172.1151 344.3269  1.00271441 12200
GAOFEN-13 02            
1 55912U 23036A   26194.58638120 -.00000223  00000+0  00000+0 0  9997
2 55912   1.0268   4.3643 0003708 336.0273 310.3810  1.00274554 12358
SES-18                  
1 55970U 23038A   26194.61184015 -.00000105  00000+0  00000+0 0  9995
2 55970   0.0570 259.1151 0000838 311.3017 198.2411  1.00271552 12360
SES-19                  
1 55971U 23038B   26193.96403530  .00000086  00000+0  00000+0 0  9996
2 55971   0.0165 326.4823 0001595 156.8223  19.7105  1.00273078 12358
INTELSAT 40E (IS-40E)   
1 56174U 23052A   26194.61426683  .00000000  00000+0  00000+0 0  9991
2 56174   0.0244  67.2239 0002265  79.6063 274.8087  1.00269375 12080
VIASAT-3 F1             
1 56370U 23060A   26193.61666089  .00000000  00000+0  00000+0 0  9993
2 56370   0.0161  22.0903 0001019  87.2892 314.1503  1.00270234 11686
ARCTURUS                
1 56371U 23060B   26194.60901429 -.00000334  00000+0  00000+0 0  9995
2 56371   2.8403  79.6133 0000891 132.0608  36.2272  1.00595356 11725
GS-1                    
1 56372U 23060C   26194.57869459 -.00000229  00000+0  00000+0 0  9991
2 56372   2.7913  79.5205 0003417 281.1680 228.4231  1.00267194  7803
BEIDOU-3 G4             
1 56564U 23066A   26194.62267053 -.00000284  00000+0  00000+0 0  9999
2 56564   0.4618 338.4175 0004876 187.8791 129.4172  1.00272958 11657
ARABSAT-7B (BADR-8)     
1 56757U 23075A   26194.06715740  .00000143  00000+0  00000+0 0  9995
2 56757   0.0751  31.4954 0003307 358.8618 310.7639  1.00271123 11371
NVS-01 (IRNSS-1J)       
1 56759U 23076A   26194.57614847 -.00000340  00000+0  00000+0 0  9990
2 56759   2.1057 243.1559 0003556   7.3092  17.8564  1.00265376 11382
NUSANTARA TIGA (SATRIA) 
1 57045U 23086A   26194.52515212 -.00000239  00000+0  00000+0 0  9998
2 57045   0.0347  13.2245 0002192 326.8860 286.3349  1.00267768 10026
H2SAT (HEINRICH HERTZ)  
1 57213U 23093A   26194.56103402 -.00000002  00000+0  00000+0 0  9999
2 57213   0.0196  98.1747 0000366  51.9613 343.9632  1.00269831 11183
